INTELSAT 10 (IS-10)     
1 26766U 01019A   26062.75806830 -.00000297  00000+0  00000+0 0  9998
2 26766   8.8243  60.3272 0006001 265.4618 254.6953  0.99042037 44537
INTELSAT 902 (IS-902)   
1 26900U 01039A   26062.03863722 -.00000296  00000+0  00000+0 0  9993
2 26900   5.8488  73.0785 0004598 274.7996 136.7372  1.00270738 89635
INTELSAT 904 (IS-904)   
1 27380U 02007A   26062.79420851 -.00000236  00000+0  00000+0 0  9991
2 27380   6.6573  70.4483 0006100 305.4140  40.1062  1.00273336 50709
DIRECTV 5 (TEMPO 1)     
1 27426U 02023A   26062.63595433 -.00000069  00000+0  00000+0 0  9996
2 27426   4.6085  76.6301 0003589 272.7334 290.8681  1.00272130 87063
INTELSAT 905 (IS-905)   
1 27438U 02027A   26062.70190802  .00000083  00000+0  00000+0 0  9997
2 27438   6.4890  71.0692 0003152 275.4380 290.4398  1.00273197 50301
GALAXY 3C (G-3C)        
1 27445U 02030A   26062.56766063 -.00000165  00000+0  00000+0 0  9993
2 27445   3.4624  79.4711 0000961  29.8748 161.4982  1.00271635 45438
INTELSAT 906 (IS-906)   
1 27513U 02041A   26062.54820634  .00000001  00000+0  00000+0 0  9992
2 27513   5.5340  74.2228 0003244 256.5254  92.0662  1.00272758 85969
GALAXY 13 (HORIZONS-1)  
1 27954U 03044A   26062.69939465  .00000119  00000+0  00000+0 0  9994
2 27954   1.1450  85.3119 0002176 259.7238 278.1866  1.00272251 45512
INTELSAT 10-02          
1 28358U 04022A   26062.65762111 -.00000025  00000+0  00000+0 0  9995
2 28358   0.0151 123.2246 0001059 255.4458  18.4711  1.00272396 79494
DIRECTV 8               
1 28659U 05019A   26062.63422098 -.00000013  00000+0  00000+0 0  9998
2 28659   0.0154 126.5303 0003274 227.9483 276.1675  1.00272377 76010
GALAXY 28 (G-28)        
1 28702U 05022A   26062.36716138 -.00000212  00000+0  00000+0 0  9993
2 28702   3.0270  80.2693 0003407 283.2742 262.6671  1.00284078 50918
GALAXY 16 (G-16)        
1 29236U 06023A   26062.56688062 -.00000141  00000+0  00000+0 0  9995
2 29236   0.0469 237.8246 0002432 121.4161 267.1443  1.00271592 71914
DIRECTV 9S              
1 29494U 06043A   26062.56644727 -.00000127  00000+0  00000+0 0  9997
2 29494   2.1483  82.2131 0003138 266.5333 275.2842  1.00271379 50328
GALAXY 17 (G-17)        
1 31307U 07016B   26062.56965397 -.00000219  00000+0  00000+0 0  9995
2 31307   2.7045  81.2510 0003333 261.2578 298.8924  1.00272146 68744
DIRECTV 10              
1 31862U 07032A   26062.66862784 -.00000006  00000+0  00000+0 0  9990
2 31862   0.1299 101.0890 0006578 272.4696  83.3559  0.98336377 44528
INTELSAT 11 (IS-11)     
1 32253U 07044B   26062.70329468  .00000060  00000+0  00000+0 0  9999
2 32253   3.2907  79.9693 0005215 205.0369 359.2287  0.99048546 67407
HORIZONS-2              
1 32388U 07063B   26062.78580179 -.00000266  00000+0  00000+0 0  9994
2 32388   2.3304  81.9614 0002831 254.6277  34.0438  1.00271805 66754
