[{"OBJECT_NAME":"INTELSAT 10 (IS-10)","OBJECT_ID":"2001-019A","EPOCH":"2026-03-03T18:11:37.101120","MEAN_MOTION":0.99042037,"ECCENTRICITY":0.0006001,"INCLINATION":8.8243,"RA_OF_ASC_NODE":60.3272,"ARG_OF_PERICENTER":265.4618,"MEAN_ANOMALY":254.6953,"EPHEMERIS_TYPE":0,"CLASSIFICATION_TYPE":"U","NORAD_CAT_ID":26766,"ELEMENT_SET_NO":999,"REV_AT_EPOCH":4453,"BSTAR":0,"MEAN_MOTION_DOT":-2.97e-6,"MEAN_MOTION_DDOT":0},{"OBJECT_NAME":"INTELSAT 902 (IS-902)","OBJECT_ID":"2001-039A","EPOCH":"2026-03-03T00:55:38.255808","MEAN_MOTION":1.00270738,"ECCENTRICITY":0.00045981,"INCLINATION":5.8488,"RA_OF_ASC_NODE":73.0785,"ARG_OF_PERICENTER":274.7996,"MEAN_ANOMALY":136.7372,"EPHEMERIS_TYPE":0,"CLASSIFICATION_TYPE":"U","NORAD_CAT_ID":26900,"ELEMENT_SET_NO":999,"REV_AT_EPOCH":8963,"BSTAR":0,"MEAN_MOTION_DOT":-2.96e-6,"MEAN_MOTION_DDOT":0},{"OBJECT_NAME":"INTELSAT 904 (IS-904)","OBJECT_ID":"2002-007A","EPOCH":"2026-03-03T19:03:39.615264","MEAN_MOTION":1.00273336,"ECCENTRICITY":0.00061,"INCLINATION":6.6573,"RA_OF_ASC_NODE":70.4483,"ARG_OF_PERICENTER":305.414,"MEAN_ANOMALY":40.1062,"EPHEMERIS_TYPE":0,"CLASSIFICATION_TYPE":"U","NORAD_CAT_ID":27380,"ELEMENT_SET_NO":999,"REV_AT_EPOCH":5070,"BSTAR":0,"MEAN_MOTION_DOT":-2.36e-6,"MEAN_MOTION_DDOT":0},{"OBJECT_NAME":"DIRECTV 5 (TEMPO 1)","OBJECT_ID":"2002-023A","EPOCH":"2026-03-03T15:15:46.454112","MEAN_MOTION":1.0027213,"ECCENTRICITY":0.0003589,"INCLINATION":4.6085,"RA_OF_ASC_NODE":76.6301,"ARG_OF_PERICENTER":272.7334,"MEAN_ANOMALY":290.8681,"EPHEMERIS_TYPE":0,"CLASSIFICATION_TYPE":"U","NORAD_CAT_ID":27426,"ELEMENT_SET_NO":999,"REV_AT_EPOCH":8706,"BSTAR":0,"MEAN_MOTION_DOT":-6.9e-7,"MEAN_MOTION_DDOT":0},{"OBJECT_NAME":"INTELSAT 905 (IS-905)","OBJECT_ID":"2002-027A","EPOCH":"2026-03-03T16:50:44.852928","MEAN_MOTION":1.00273197,"ECCENTRICITY":0.0003152,"INCLINATION":6.489,"RA_OF_ASC_NODE":71.0692,"ARG_OF_PERICENTER":275.438,"MEAN_ANOMALY":290.4398,"EPHEMERIS_TYPE":0,"CLASSIFICATION_TYPE":"U","NORAD_CAT_ID":27438,"ELEMENT_SET_NO":999,"REV_AT_EPOCH":5030,"BSTAR":0,"MEAN_MOTION_DOT":8.3e-7,"MEAN_MOTION_DDOT":0},{"OBJECT_NAME":"GALAXY 3C (G-3C)","OBJECT_ID":"2002-030A","EPOCH":"2026-03-03T13:37:25.878432","MEAN_MOTION":1.00271635,"ECCENTRICITY":9.61e-5,"INCLINATION":3.4624,"RA_OF_ASC_NODE":79.4711,"ARG_OF_PERICENTER":29.8748,"MEAN_ANOMALY":161.4982,"EPHEMERIS_TYPE":0,"CLASSIFICATION_TYPE":"U","NORAD_CAT_ID":27445,"ELEMENT_SET_NO":999,"REV_AT_EPOCH":4543,"BSTAR":0,"MEAN_MOTION_DOT":-1.65e-6,"MEAN_MOTION_DDOT":0},{"OBJECT_NAME":"INTELSAT 906 (IS-906)","OBJECT_ID":"2002-041A","EPOCH":"2026-03-03T13:09:25.027776","MEAN_MOTION":1.00272758,"ECCENTRICITY":0.0003244,"INCLINATION":5.534,"RA_OF_ASC_NODE":74.2228,"ARG_OF_PERICENTER":256.5254,"MEAN_ANOMALY":92.0662,"EPHEMERIS_TYPE":0,"CLASSIFICATION_TYPE":"U","NORAD_CAT_ID":27513,"ELEMENT_SET_NO":999,"REV_AT_EPOCH":8596,"BSTAR":0,"MEAN_MOTION_DOT":1.0e-8,"MEAN_MOTION_DDOT":0},{"OBJECT_NAME":"GALAXY 13 (HORIZONS-1)","OBJECT_ID":"2003-044A","EPOCH":"2026-03-03T16:47:07.697760","MEAN_MOTION":1.00272251,"ECCENTRICITY":0.0002176,"INCLINATION":1.145,"RA_OF_ASC_NODE":85.3119,"ARG_OF_PERICENTER":259.7238,"MEAN_ANOMALY":278.1866,"EPHEMERIS_TYPE":0,"CLASSIFICATION_TYPE":"U","NORAD_CAT_ID":27954,"ELEMENT_SET_NO":999,"REV_AT_EPOCH":4551,"BSTAR":0,"MEAN_MOTION_DOT":1.19e-6,"MEAN_MOTION_DDOT":0},{"OBJECT_NAME":"INTELSAT 10-02","OBJECT_ID":"2004-022A","EPOCH":"2026-03-03T15:46:58.463904","MEAN_MOTION":1.00272396,"ECCENTRICITY":0.0001059,"INCLINATION":0.0151,"RA_OF_ASC_NODE":123.2246,"ARG_OF_PERICENTER":255.4458,"MEAN_ANOMALY":18.4711,"EPHEMERIS_TYPE":0,"CLASSIFICATION_TYPE":"U","NORAD_CAT_ID":28358,"ELEMENT_SET_NO":999,"REV_AT_EPOCH":7949,"BSTAR":0,"MEAN_MOTION_DOT":-2.5e-7,"MEAN_MOTION_DDOT":0},{"OBJECT_NAME":"DIRECTV 8","OBJECT_ID":"2005-019A","EPOCH":"2026-03-03T15:13:16.692672","MEAN_MOTION":1.00272377,"ECCENTRICITY":0.0003274,"INCLINATION":0.0154,"RA_OF_ASC_NODE":126.5303,"ARG_OF_PERICENTER":227.9483,"MEAN_ANOMALY":276.1675,"EPHEMERIS_TYPE":0,"CLASSIFICATION_TYPE":"U","NORAD_CAT_ID":28659,"ELEMENT_SET_NO":999,"REV_AT_EPOCH":7601,"BSTAR":0,"MEAN_MOTION_DOT":-1.3e-7,"MEAN_MOTION_DDOT":0},{"OBJECT_NAME":"GALAXY 28 (G-28)","OBJECT_ID":"2005-022A","EPOCH":"2026-03-03T08:48:42.743232","MEAN_MOTION":1.00284078,"ECCENTRICITY":0.00034079,"INCLINATION":3.027,"RA_OF_ASC_NODE":80.2693,"ARG_OF_PERICENTER":283.2742,"MEAN_ANOMALY":262.6671,"EPHEMERIS_TYPE":0,"CLASSIFICATION_TYPE":"U","NORAD_CAT_ID":28702,"ELEMENT_SET_NO":999,"REV_AT_EPOCH":5091,"BSTAR":0,"MEAN_MOTION_DOT":-2.12e-6,"MEAN_MOTION_DDOT":0},{"OBJECT_NAME":"GALAXY 16 (G-16)","OBJECT_ID":"2006-023A","EPOCH":"2026-03-03T13:36:18.485568","MEAN_MOTION":1.00271592,"ECCENTRICITY":0.0002432,"INCLINATION":0.0469,"RA_OF_ASC_NODE":237.8246,"ARG_OF_PERICENTER":121.4161,"MEAN_ANOMALY":267.1443,"EPHEMERIS_TYPE":0,"CLASSIFICATION_TYPE":"U","NORAD_CAT_ID":29236,"ELEMENT_SET_NO":999,"REV_AT_EPOCH":7191,"BSTAR":0,"MEAN_MOTION_DOT":-1.41e-6,"MEAN_MOTION_DDOT":0},{"OBJECT_NAME":"DIRECTV 9S","OBJECT_ID":"2006-043A","EPOCH":"2026-03-03T13:35:41.044128","MEAN_MOTION":1.00271379,"ECCENTRICITY":0.0003138,"INCLINATION":2.1483,"RA_OF_ASC_NODE":82.2131,"ARG_OF_PERICENTER":266.5333,"MEAN_ANOMALY":275.2842,"EPHEMERIS_TYPE":0,"CLASSIFICATION_TYPE":"U","NORAD_CAT_ID":29494,"ELEMENT_SET_NO":999,"REV_AT_EPOCH":5032,"BSTAR":0,"MEAN_MOTION_DOT":-1.27e-6,"MEAN_MOTION_DDOT":0},{"OBJECT_NAME":"GALAXY 17 (G-17)","OBJECT_ID":"2007-016B","EPOCH":"2026-03-03T13:40:18.103008","MEAN_MOTION":1.00272146,"ECCENTRICITY":0.0003333,"INCLINATION":2.7045,"RA_OF_ASC_NODE":81.251,"ARG_OF_PERICENTER":261.2578,"MEAN_ANOMALY":298.8924,"EPHEMERIS_TYPE":0,"CLASSIFICATION_TYPE":"U","NORAD_CAT_ID":31307,"ELEMENT_SET_NO":999,"REV_AT_EPOCH":6874,"BSTAR":0,"MEAN_MOTION_DOT":-2.19e-6,"MEAN_MOTION_DDOT":0},{"OBJECT_NAME":"DIRECTV 10","OBJECT_ID":"2007-032A","EPOCH":"2026-03-03T16:02:49.445376","MEAN_MOTION":0.98336377,"ECCENTRICITY":0.0006578,"INCLINATION":0.1299,"RA_OF_ASC_NODE":101.089,"ARG_OF_PERICENTER":272.4696,"MEAN_ANOMALY":83.3559,"EPHEMERIS_TYPE":0,"CLASSIFICATION_TYPE":"U","NORAD_CAT_ID":31862,"ELEMENT_SET_NO":999,"REV_AT_EPOCH":4452,"BSTAR":0,"MEAN_MOTION_DOT":-6.0e-8,"MEAN_MOTION_DDOT":0},{"OBJECT_NAME":"INTELSAT 11 (IS-11)","OBJECT_ID":"2007-044B","EPOCH":"2026-03-03T16:52:44.660352","MEAN_MOTION":0.99048546,"ECCENTRICITY":0.0005215,"INCLINATION":3.2907,"RA_OF_ASC_NODE":79.9693,"ARG_OF_PERICENTER":205.0369,"MEAN_ANOMALY":359.2287,"EPHEMERIS_TYPE":0,"CLASSIFICATION_TYPE":"U","NORAD_CAT_ID":32253,"ELEMENT_SET_NO":999,"REV_AT_EPOCH":6740,"BSTAR":0,"MEAN_MOTION_DOT":6.0e-7,"MEAN_MOTION_DDOT":0},{"OBJECT_NAME":"HORIZONS-2","OBJECT_ID":"2007-063B","EPOCH":"2026-03-03T18:51:33.274656","MEAN_MOTION":1.00271805,"ECCENTRICITY":0.0002831,"INCLINATION":2.3304,"RA_OF_ASC_NODE":81.9614,"ARG_OF_PERICENTER":254.6277,"MEAN_ANOMALY":34.0438,"EPHEMERIS_TYPE":0,"CLASSIFICATION_TYPE":"U","NORAD_CAT_ID":32388,"ELEMENT_SET_NO":999,"REV_AT_EPOCH":6675,"BSTAR":0,"MEAN_MOTION_DOT":-2.66e-6,"MEAN_MOTION_DDOT":0}]
